[{"OBJECT_NAME":"FLOCK 4BE-36","OBJECT_ID":"2024-149U","EPOCH":"2026-04-04T18:24:09.796320","MEAN_MOTION":15.40402565,"ECCENTRICITY":0.0004582,"INCLINATION":97.3753,"RA_OF_ASC_NODE":178.4454,"ARG_OF_PERICENTER":158.5145,"MEAN_ANOMALY":201.6294,"EPHEMERIS_TYPE":0,"CLASSIFICATION_TYPE":"U","NORAD_CAT_ID":60486,"ELEMENT_SET_NO":999,"REV_AT_EPOCH":9104,"BSTAR":0.00068109,"MEAN_MOTION_DOT":0.00027524,"MEAN_MOTION_DDOT":0},{"OBJECT_NAME":"FLOCK 4BE-25","OBJECT_ID":"2024-149V","EPOCH":"2026-04-04T18:09:54.184032","MEAN_MOTION":15.36943004,"ECCENTRICITY":0.0003496,"INCLINATION":97.3811,"RA_OF_ASC_NODE":177.5147,"ARG_OF_PERICENTER":144.5127,"MEAN_ANOMALY":215.635,"EPHEMERIS_TYPE":0,"CLASSIFICATION_TYPE":"U","NORAD_CAT_ID":60487,"ELEMENT_SET_NO":999,"REV_AT_EPOCH":9095,"BSTAR":0.00058841,"MEAN_MOTION_DOT":0.00021213,"MEAN_MOTION_DDOT":0},{"OBJECT_NAME":"FLOCK 4BE-31","OBJECT_ID":"2024-149W","EPOCH":"2026-04-04T04:50:55.012704","MEAN_MOTION":15.41287355,"ECCENTRICITY":0.0003574,"INCLINATION":97.3811,"RA_OF_ASC_NODE":178.5507,"ARG_OF_PERICENTER":156.4186,"MEAN_ANOMALY":203.7225,"EPHEMERIS_TYPE":0,"CLASSIFICATION_TYPE":"U","NORAD_CAT_ID":60488,"ELEMENT_SET_NO":999,"REV_AT_EPOCH":9097,"BSTAR":0.00094787615,"MEAN_MOTION_DOT":0.00039531,"MEAN_MOTION_DDOT":0},{"OBJECT_NAME":"FLOCK 4BE-20","OBJECT_ID":"2024-149X","EPOCH":"2026-04-04T16:23:19.123008","MEAN_MOTION":15.36152518,"ECCENTRICITY":0.0004839,"INCLINATION":97.3715,"RA_OF_ASC_NODE":176.5057,"ARG_OF_PERICENTER":155.1586,"MEAN_ANOMALY":204.9892,"EPHEMERIS_TYPE":0,"CLASSIFICATION_TYPE":"U","NORAD_CAT_ID":60489,"ELEMENT_SET_NO":999,"REV_AT_EPOCH":9092,"BSTAR":0.00056018,"MEAN_MOTION_DOT":0.00019685,"MEAN_MOTION_DDOT":0},{"OBJECT_NAME":"FLOCK 4BE-23","OBJECT_ID":"2024-149Y","EPOCH":"2026-04-04T18:51:49.255200","MEAN_MOTION":15.35792935,"ECCENTRICITY":0.000442,"INCLINATION":97.3792,"RA_OF_ASC_NODE":176.9442,"ARG_OF_PERICENTER":160.7238,"MEAN_ANOMALY":199.4174,"EPHEMERIS_TYPE":0,"CLASSIFICATION_TYPE":"U","NORAD_CAT_ID":60490,"ELEMENT_SET_NO":999,"REV_AT_EPOCH":9092,"BSTAR":0.00058235,"MEAN_MOTION_DOT":0.00020232,"MEAN_MOTION_DDOT":0},{"OBJECT_NAME":"FLOCK 4BE-15","OBJECT_ID":"2024-149Z","EPOCH":"2026-04-04T18:52:23.281248","MEAN_MOTION":15.45338151,"ECCENTRICITY":0.0005284,"INCLINATION":97.3723,"RA_OF_ASC_NODE":178.2662,"ARG_OF_PERICENTER":223.5771,"MEAN_ANOMALY":136.5061,"EPHEMERIS_TYPE":0,"CLASSIFICATION_TYPE":"U","NORAD_CAT_ID":60491,"ELEMENT_SET_NO":999,"REV_AT_EPOCH":9104,"BSTAR":0.0025047,"MEAN_MOTION_DOT":0.00121112,"MEAN_MOTION_DDOT":0},{"OBJECT_NAME":"FLOCK 4BE-17","OBJECT_ID":"2024-149AA","EPOCH":"2026-04-04T16:03:42.204672","MEAN_MOTION":15.37657379,"ECCENTRICITY":0.0004213,"INCLINATION":97.3784,"RA_OF_ASC_NODE":177.5764,"ARG_OF_PERICENTER":151.0514,"MEAN_ANOMALY":209.0965,"EPHEMERIS_TYPE":0,"CLASSIFICATION_TYPE":"U","NORAD_CAT_ID":60492,"ELEMENT_SET_NO":999,"REV_AT_EPOCH":9095,"BSTAR":0.00061028,"MEAN_MOTION_DOT":0.00022524,"MEAN_MOTION_DDOT":0},{"OBJECT_NAME":"NUSAT-50 (NANCY ROMAN)","OBJECT_ID":"2024-149AB","EPOCH":"2026-04-04T18:20:43.912896","MEAN_MOTION":15.30580628,"ECCENTRICITY":0.0004561,"INCLINATION":97.3786,"RA_OF_ASC_NODE":176.5678,"ARG_OF_PERICENTER":144.7931,"MEAN_ANOMALY":215.3612,"EPHEMERIS_TYPE":0,"CLASSIFICATION_TYPE":"U","NORAD_CAT_ID":60493,"ELEMENT_SET_NO":999,"REV_AT_EPOCH":9090,"BSTAR":0.00056499,"MEAN_MOTION_DOT":0.00016651,"MEAN_MOTION_DDOT":0},{"OBJECT_NAME":"FLOCK 4BE-22","OBJECT_ID":"2024-149AC","EPOCH":"2026-04-04T18:42:30.760416","MEAN_MOTION":15.38926228,"ECCENTRICITY":0.0004465,"INCLINATION":97.3744,"RA_OF_ASC_NODE":177.7707,"ARG_OF_PERICENTER":160.9845,"MEAN_ANOMALY":199.1568,"EPHEMERIS_TYPE":0,"CLASSIFICATION_TYPE":"U","NORAD_CAT_ID":60494,"ELEMENT_SET_NO":999,"REV_AT_EPOCH":9100,"BSTAR":0.00067001,"MEAN_MOTION_DOT":0.00025789,"MEAN_MOTION_DDOT":0},{"OBJECT_NAME":"FLOCK 4BE-34","OBJECT_ID":"2024-149AD","EPOCH":"2026-04-04T19:10:29.536608","MEAN_MOTION":15.39042979,"ECCENTRICITY":0.0004548,"INCLINATION":97.3788,"RA_OF_ASC_NODE":178.5608,"ARG_OF_PERICENTER":166.8659,"MEAN_ANOMALY":193.2705,"EPHEMERIS_TYPE":0,"CLASSIFICATION_TYPE":"U","NORAD_CAT_ID":60495,"ELEMENT_SET_NO":999,"REV_AT_EPOCH":9103,"BSTAR":0.00066868,"MEAN_MOTION_DOT":0.00025836,"MEAN_MOTION_DDOT":0},{"OBJECT_NAME":"TYCHE","OBJECT_ID":"2024-149AE","EPOCH":"2026-04-04T19:37:42.732480","MEAN_MOTION":15.25953905,"ECCENTRICITY":0.0004888,"INCLINATION":97.3771,"RA_OF_ASC_NODE":173.6165,"ARG_OF_PERICENTER":152.2346,"MEAN_ANOMALY":207.9154,"EPHEMERIS_TYPE":0,"CLASSIFICATION_TYPE":"U","NORAD_CAT_ID":60496,"ELEMENT_SET_NO":999,"REV_AT_EPOCH":9071,"BSTAR":0.00029032,"MEAN_MOTION_DOT":7.385e-5,"MEAN_MOTION_DDOT":0},{"OBJECT_NAME":"FLOCK 4BE-32","OBJECT_ID":"2024-149AF","EPOCH":"2026-04-04T16:14:22.992864","MEAN_MOTION":15.39720872,"ECCENTRICITY":0.0004608,"INCLINATION":97.373,"RA_OF_ASC_NODE":177.9482,"ARG_OF_PERICENTER":164.9078,"MEAN_ANOMALY":195.2306,"EPHEMERIS_TYPE":0,"CLASSIFICATION_TYPE":"U","NORAD_CAT_ID":60497,"ELEMENT_SET_NO":999,"REV_AT_EPOCH":9101,"BSTAR":0.00066361,"MEAN_MOTION_DOT":0.00026217,"MEAN_MOTION_DDOT":0},{"OBJECT_NAME":"NUSAT-48 (HENRIETTA LEAVITT)","OBJECT_ID":"2024-149AG","EPOCH":"2026-04-04T18:35:18.074400","MEAN_MOTION":15.29849325,"ECCENTRICITY":0.0004451,"INCLINATION":97.3907,"RA_OF_ASC_NODE":176.6556,"ARG_OF_PERICENTER":159.0476,"MEAN_ANOMALY":201.0947,"EPHEMERIS_TYPE":0,"CLASSIFICATION_TYPE":"U","NORAD_CAT_ID":60498,"ELEMENT_SET_NO":999,"REV_AT_EPOCH":9091,"BSTAR":0.00056296,"MEAN_MOTION_DOT":0.00016219,"MEAN_MOTION_DDOT":0},{"OBJECT_NAME":"FLOCK 4BE-30","OBJECT_ID":"2024-149AH","EPOCH":"2026-04-04T19:07:21.309888","MEAN_MOTION":15.42770961,"ECCENTRICITY":0.0003386,"INCLINATION":97.3807,"RA_OF_ASC_NODE":178.7094,"ARG_OF_PERICENTER":205.8793,"MEAN_ANOMALY":154.2285,"EPHEMERIS_TYPE":0,"CLASSIFICATION_TYPE":"U","NORAD_CAT_ID":60499,"ELEMENT_SET_NO":999,"REV_AT_EPOCH":9041,"BSTAR":0.0024214,"MEAN_MOTION_DOT":0.00107157,"MEAN_MOTION_DDOT":0},{"OBJECT_NAME":"NUSAT-49 (KLARA DAN VON NEUMANN)","OBJECT_ID":"2024-149AJ","EPOCH":"2026-04-04T16:31:25.022784","MEAN_MOTION":15.2960094,"ECCENTRICITY":0.0003105,"INCLINATION":97.3793,"RA_OF_ASC_NODE":176.4794,"ARG_OF_PERICENTER":163.0677,"MEAN_ANOMALY":197.0668,"EPHEMERIS_TYPE":0,"CLASSIFICATION_TYPE":"U","NORAD_CAT_ID":60500,"ELEMENT_SET_NO":999,"REV_AT_EPOCH":9089,"BSTAR":0.00053139,"MEAN_MOTION_DOT":0.00015184,"MEAN_MOTION_DDOT":0},{"OBJECT_NAME":"FLOCK 4BE-11","OBJECT_ID":"2024-149AK","EPOCH":"2026-04-04T18:37:41.334240","MEAN_MOTION":15.4053611,"ECCENTRICITY":0.0004708,"INCLINATION":97.3715,"RA_OF_ASC_NODE":178.2053,"ARG_OF_PERICENTER":165.0286,"MEAN_ANOMALY":195.11,"EPHEMERIS_TYPE":0,"CLASSIFICATION_TYPE":"U","NORAD_CAT_ID":60501,"ELEMENT_SET_NO":999,"REV_AT_EPOCH":9104,"BSTAR":0.00067088,"MEAN_MOTION_DOT":0.00027229,"MEAN_MOTION_DDOT":0}]
